{
  "norad_id": 49447,
  "name": "STARLINK-3115",
  "history": [
    {
      "epoch": "2026-03-28T19:55:49.905408Z",
      "apogee_km": 540.3287345071894,
      "perigee_km": 538.9631641529922,
      "latitude_deg": 5.4092724953787136e-05,
      "longitude_deg": 7.992247367958489,
      "height_km": 540.7211958517187,
      "semi_major_axis_km": 6917.782949330091,
      "eccentricity": 9.87e-05,
      "inclination_deg": 53.2169,
      "raan_deg": 133.1954,
      "arg_perigee_deg": 105.2017,
      "mean_anomaly_deg": 254.9085,
      "mean_motion_rev_day": 15.08871879
    },
    {
      "epoch": "2026-03-29T08:38:55.868640Z",
      "apogee_km": 540.2542324328097,
      "perigee_km": 539.1365874286621,
      "latitude_deg": 4.393286165895262e-05,
      "longitude_deg": 174.31567016027677,
      "height_km": 540.3257436365824,
      "semi_major_axis_km": 6917.832409930736,
      "eccentricity": 8.078e-05,
      "inclination_deg": 53.2168,
      "raan_deg": 130.816,
      "arg_perigee_deg": 61.5539,
      "mean_anomaly_deg": 298.5535,
      "mean_motion_rev_day": 15.08855697
    },
    {
      "epoch": "2026-03-30T11:40:32.863872Z",
      "apogee_km": 540.7088102742655,
      "perigee_km": 538.9505398641304,
      "latitude_deg": -2.678667138275671e-05,
      "longitude_deg": 122.74611455114382,
      "height_km": 540.6620955100918,
      "semi_major_axis_km": 6917.966675069198,
      "eccentricity": 0.00012708,
      "inclination_deg": 53.2162,
      "raan_deg": 125.7606,
      "arg_perigee_deg": 85.8723,
      "mean_anomaly_deg": 274.2414,
      "mean_motion_rev_day": 15.08811771
    },
    {
      "epoch": "2026-03-30T19:37:28.624224Z",
      "apogee_km": 540.7120725976238,
      "perigee_km": 538.9172792148265,
      "latitude_deg": -9.576639573489507e-06,
      "longitude_deg": 1.7014463976204925,
      "height_km": 540.5789553512573,
      "semi_major_axis_km": 6917.951675906224,
      "eccentricity": 0.00012972,
      "inclination_deg": 53.2163,
      "raan_deg": 124.2747,
      "arg_perigee_deg": 81.5796,
      "mean_anomaly_deg": 278.5343,
      "mean_motion_rev_day": 15.08816678
    },
    {
      "epoch": "2026-03-31T11:31:19.007904Z",
      "apogee_km": 540.6170259490627,
      "perigee_km": 538.9798273509914,
      "latitude_deg": -2.9363274922749046e-05,
      "longitude_deg": 119.61222047463704,
      "height_km": 540.5809893258108,
      "semi_major_axis_km": 6917.935426650027,
      "eccentricity": 0.00011833,
      "inclination_deg": 53.2156,
      "raan_deg": 121.2983,
      "arg_perigee_deg": 82.0507,
      "mean_anomaly_deg": 278.0619,
      "mean_motion_rev_day": 15.08821994
    },
    {
      "epoch": "2026-04-01T11:22:06.645792Z",
      "apogee_km": 540.5688726524704,
      "perigee_km": 538.9874372480499,
      "latitude_deg": -4.5433839520426006e-05,
      "longitude_deg": 116.47527496921411,
      "height_km": 540.4112151641787,
      "semi_major_axis_km": 6917.91515495026,
      "eccentricity": 0.0001143,
      "inclination_deg": 53.2153,
      "raan_deg": 116.8392,
      "arg_perigee_deg": 70.587,
      "mean_anomaly_deg": 289.5245,
      "mean_motion_rev_day": 15.08828626
    },
    {
      "epoch": "2026-04-02T08:02:07.158048Z",
      "apogee_km": 540.6072747177232,
      "perigee_km": 538.8509668669776,
      "latitude_deg": -3.0194300149134008e-05,
      "longitude_deg": 161.75879709959594,
      "height_km": 540.4165879995837,
      "semi_major_axis_km": 6917.866120792351,
      "eccentricity": 0.00012694,
      "inclination_deg": 53.2161,
      "raan_deg": 112.9736,
      "arg_perigee_deg": 76.2795,
      "mean_anomaly_deg": 283.8338,
      "mean_motion_rev_day": 15.08844668
    },
    {
      "epoch": "2026-04-03T11:03:41.584608Z",
      "apogee_km": 540.4626254131517,
      "perigee_km": 539.0629959234566,
      "latitude_deg": -2.3159060441557368e-06,
      "longitude_deg": 110.19804644843737,
      "height_km": 540.7515540594668,
      "semi_major_axis_km": 6917.899810668304,
      "eccentricity": 0.00010116,
      "inclination_deg": 53.2157,
      "raan_deg": 107.9162,
      "arg_perigee_deg": 97.6149,
      "mean_anomaly_deg": 262.4958,
      "mean_motion_rev_day": 15.08833646
    },
    {
      "epoch": "2026-04-04T06:08:18.515040Z",
      "apogee_km": 540.5945545588829,
      "perigee_km": 538.8643961533962,
      "latitude_deg": 3.878680242319065e-05,
      "longitude_deg": 179.6953384514413,
      "height_km": 540.3265211816458,
      "semi_major_axis_km": 6917.866475356139,
      "eccentricity": 0.00012505,
      "inclination_deg": 53.2161,
      "raan_deg": 104.3508,
      "arg_perigee_deg": 69.7951,
      "mean_anomaly_deg": 290.3176,
      "mean_motion_rev_day": 15.08844552
    },
    {
      "epoch": "2026-04-05T07:34:28.565760Z",
      "apogee_km": 540.5464876849528,
      "perigee_km": 538.9954927135514,
      "latitude_deg": -3.725386872026484e-06,
      "longitude_deg": 152.35020302579343,
      "height_km": 540.4240887034647,
      "semi_major_axis_km": 6917.907990199252,
      "eccentricity": 0.0001121,
      "inclination_deg": 53.2165,
      "raan_deg": 99.5922,
      "arg_perigee_deg": 71.7454,
      "mean_anomaly_deg": 288.366,
      "mean_motion_rev_day": 15.0883097
    },
    {
      "epoch": "2026-04-07T05:40:38.473824Z",
      "apogee_km": 540.7421397431135,
      "perigee_km": 538.7571213533429,
      "latitude_deg": 2.588696255482419e-05,
      "longitude_deg": 170.2908642871985,
      "height_km": 540.4076577608596,
      "semi_major_axis_km": 6917.886630548228,
      "eccentricity": 0.00014347,
      "inclination_deg": 53.2159,
      "raan_deg": 90.9675,
      "arg_perigee_deg": 76.1568,
      "mean_anomaly_deg": 283.9584,
      "mean_motion_rev_day": 15.08837958
    },
    {
      "epoch": "2026-04-07T16:48:20.323872Z",
      "apogee_km": 540.7687082426364,
      "perigee_km": 538.7265487003115,
      "latitude_deg": -2.129302990458789e-05,
      "longitude_deg": 0.8280299467606657,
      "height_km": 540.3985537180349,
      "semi_major_axis_km": 6917.884628471474,
      "eccentricity": 0.0001476,
      "inclination_deg": 53.216,
      "raan_deg": 88.8861,
      "arg_perigee_deg": 76.1436,
      "mean_anomaly_deg": 283.972,
      "mean_motion_rev_day": 15.08838613
    },
    {
      "epoch": "2026-04-08T08:42:11.675232Z",
      "apogee_km": 540.9366408058722,
      "perigee_km": 538.6252260659521,
      "latitude_deg": -3.0195520959952936e-05,
      "longitude_deg": 118.73716619452759,
      "height_km": 540.4684469578539,
      "semi_major_axis_km": 6917.917933435911,
      "eccentricity": 0.00016706,
      "inclination_deg": 53.216,
      "raan_deg": 85.9121,
      "arg_perigee_deg": 79.6493,
      "mean_anomaly_deg": 280.4687,
      "mean_motion_rev_day": 15.08827717
    },
    {
      "epoch": "2026-04-09T05:22:12.724032Z",
      "apogee_km": 540.9793681579695,
      "perigee_km": 538.5450977758719,
      "latitude_deg": 1.2105885687766168e-05,
      "longitude_deg": 164.01876322329397,
      "height_km": 540.4215637281762,
      "semi_major_axis_km": 6917.89923296692,
      "eccentricity": 0.00017594,
      "inclination_deg": 53.2166,
      "raan_deg": 82.0468,
      "arg_perigee_deg": 78.8305,
      "mean_anomaly_deg": 281.2885,
      "mean_motion_rev_day": 15.08833835
    },
    {
      "epoch": "2026-04-10T08:23:46.252032Z",
      "apogee_km": 540.9839968365004,
      "perigee_km": 538.5184614716309,
      "latitude_deg": 5.344822471489524e-05,
      "longitude_deg": 112.46367331093197,
      "height_km": 540.438122570661,
      "semi_major_axis_km": 6917.888229154066,
      "eccentricity": 0.0001782,
      "inclination_deg": 53.2168,
      "raan_deg": 76.9913,
      "arg_perigee_deg": 80.2776,
      "mean_anomaly_deg": 279.8418,
      "mean_motion_rev_day": 15.08837435
    },
    {
      "epoch": "2026-04-11T20:57:38.791296Z",
      "apogee_km": 540.9954550505227,
      "perigee_km": 538.5202322754594,
      "latitude_deg": 6.4597964482719e-06,
      "longitude_deg": -84.34683266343133,
      "height_km": 540.4367982927386,
      "semi_major_axis_km": 6917.894843662991,
      "eccentricity": 0.0001789,
      "inclination_deg": 53.2169,
      "raan_deg": 70.1514,
      "arg_perigee_deg": 79.9425,
      "mean_anomaly_deg": 280.1769,
      "mean_motion_rev_day": 15.08835271
    },
    {
      "epoch": "2026-04-13T06:20:44.846016Z",
      "apogee_km": 541.0158778423556,
      "perigee_km": 538.4934761790846,
      "latitude_deg": 7.01819272899873e-06,
      "longitude_deg": 127.26276534518306,
      "height_km": 540.4723245375068,
      "semi_major_axis_km": 6917.89167701072,
      "eccentricity": 0.00018231,
      "inclination_deg": 53.217,
      "raan_deg": 63.9073,
      "arg_perigee_deg": 81.9146,
      "mean_anomaly_deg": 278.2053,
      "mean_motion_rev_day": 15.08836307
    },
    {
      "epoch": "2026-04-14T06:11:31.828992Z",
      "apogee_km": 541.0207271304789,
      "perigee_km": 538.474945510714,
      "latitude_deg": 1.3756161288238202e-05,
      "longitude_deg": 124.12707257966437,
      "height_km": 540.5123867770922,
      "semi_major_axis_km": 6917.884836320596,
      "eccentricity": 0.000184,
      "inclination_deg": 53.217,
      "raan_deg": 59.4467,
      "arg_perigee_deg": 84.118,
      "mean_anomaly_deg": 276.0022,
      "mean_motion_rev_day": 15.08838545
    },
    {
      "epoch": "2026-04-15T13:59:14.415072Z",
      "apogee_km": 541.0582133204207,
      "perigee_km": 538.4211187353303,
      "latitude_deg": 1.0183166079119504e-05,
      "longitude_deg": -0.05345072819249797,
      "height_km": 540.5338603107111,
      "semi_major_axis_km": 6917.876666027875,
      "eccentricity": 0.0001906,
      "inclination_deg": 53.217,
      "raan_deg": 53.4994,
      "arg_perigee_deg": 85.6199,
      "mean_anomaly_deg": 274.5011,
      "mean_motion_rev_day": 15.08841218
    }
  ]
}